[{"OBJECT_NAME":"ONEWEB-0268","OBJECT_ID":"2021-060V","EPOCH":"2026-03-09T22:23:37.282560","MEAN_MOTION":13.16593671,"ECCENTRICITY":0.00015606,"INCLINATION":87.9003,"RA_OF_ASC_NODE":248.5218,"ARG_OF_PERICENTER":97.4366,"MEAN_ANOMALY":262.6943,"EPHEMERIS_TYPE":0,"CLASSIFICATION_TYPE":"U","NORAD_CAT_ID":48986,"ELEMENT_SET_NO":999,"REV_AT_EPOCH":22679,"BSTAR":1.8319038e-5,"MEAN_MOTION_DOT":2.0e-7,"MEAN_MOTION_DDOT":0},{"OBJECT_NAME":"FENGYUN 1C DEB","OBJECT_ID":"1999-025AZS","EPOCH":"2026-03-09T04:37:14.626560","MEAN_MOTION":13.22454712,"ECCENTRICITY":0.04558543,"INCLINATION":98.8745,"RA_OF_ASC_NODE":149.8114,"ARG_OF_PERICENTER":180.9505,"MEAN_ANOMALY":208.8078,"EPHEMERIS_TYPE":0,"CLASSIFICATION_TYPE":"U","NORAD_CAT_ID":30928,"ELEMENT_SET_NO":999,"REV_AT_EPOCH":91491,"BSTAR":0.0015534075,"MEAN_MOTION_DOT":1.089e-5,"MEAN_MOTION_DDOT":0}]
